{"type": "FeatureCollection", "features": [ {"type": "Feature", "properties": {"norad_id": 34303, "name": "COSMOS 2251 DEB", "group": "cosmos-2251-debris", "lat": -19.234819215738355, "lon": -90.42544914486295, "alt_km": 684.6736760240537, "timestamp": "2025-12-19T10:50:01.595590+00:00", "meta": {"OBJECT_NAME": "COSMOS 2251 DEB", "OBJECT_ID": "1993-036MZ", "EPOCH": "2025-12-18T22:02:15.699264", "MEAN_MOTION": 14.54531321, "ECCENTRICITY": 0.01353168, "INCLINATION": 74.0059, "RA_OF_ASC_NODE": 276.3285, "ARG_OF_PERICENTER": 53.1215, "MEAN_ANOMALY": 17.707, "EPHEMERIS_TYPE": 0, "CLASSIFICATION_TYPE": "U", "NORAD_CAT_ID": 34303, "ELEMENT_SET_NO": 999, "REV_AT_EPOCH": 88052, "BSTAR": 0.0011313187, "MEAN_MOTION_DOT": 5.425e-05, "MEAN_MOTION_DDOT": 0}, "tle": {"line1": "1 34303U 93036MZ  25352.91823726  .00005425  00000+0  11313-2 0  9995", "line2": "2 34303  74.0059 276.3285 0135316  53.1215  17.7070 14.54531321880523"}}, "geometry": {"type": "Point", "coordinates": [-90.42544914486295, -19.234819215738355]}}, {"type": "Feature", "properties": {"norad_id": 34304, "name": "COSMOS 2251 DEB", "group": "cosmos-2251-debris", "lat": 49.65345844133751, "lon": 129.93842737388246, "alt_km": 849.8123050886952, "timestamp": "2025-12-19T10:50:01.595600+00:00", "meta": {"OBJECT_NAME": "COSMOS 2251 DEB", "OBJECT_ID": "1993-036NA", "EPOCH": "2025-12-18T18:35:44.645856", "MEAN_MOTION": 14.37914931, "ECCENTRICITY": 0.01289999, "INCLINATION": 74.0134, "RA_OF_ASC_NODE": 111.4624, "ARG_OF_PERICENTER": 248.028, "MEAN_ANOMALY": 263.189, "EPHEMERIS_TYPE": 0, "CLASSIFICATION_TYPE": "U", "NORAD_CAT_ID": 34304, "ELEMENT_SET_NO": 999, "REV_AT_EPOCH": 87383, "BSTAR": 0.0011783683, "MEAN_MOTION_DOT": 3.891e-05, "MEAN_MOTION_DDOT": 0}, "tle": {"line1": "1 34304U 93036NA  25352.77482229  .00003891  00000+0  11784-2 0  9996", "line2": "2 34304  74.0134 111.4624 0128999 248.0280 263.1890 14.37914931873836"}}, "geometry": {"type": "Point", "coordinates": [129.93842737388246, 49.65345844133751]}}, {"type": "Feature", "properties": {"norad_id": 34307, "name": "COSMOS 2251 DEB", "group": "cosmos-2251-debris", "lat": 33.703143888929404, "lon": -46.66079648990722, "alt_km": 1075.4718521769792, "timestamp": "2025-12-19T10:50:01.595610+00:00", "meta": {"OBJECT_NAME": "COSMOS 2251 DEB", "OBJECT_ID": "1993-036ND", "EPOCH": "2025-12-18T22:32:07.994688", "MEAN_MOTION": 13.54329478, "ECCENTRICITY": 0.03918643, "INCLINATION": 74.0532, "RA_OF_ASC_NODE": 303.1674, "ARG_OF_PERICENTER": 132.7637, "MEAN_ANOMALY": 289.602, "EPHEMERIS_TYPE": 0, "CLASSIFICATION_TYPE": "U", "NORAD_CAT_ID": 34307, "ELEMENT_SET_NO": 999, "REV_AT_EPOCH": 82946, "BSTAR": 0.00051386411, "MEAN_MOTION_DOT": 5.53e-06, "MEAN_MOTION_DDOT": 0}, "tle": {"line1": "1 34307U 93036ND  25352.93898142  .00000553  00000+0  51386-3 0  9997", "line2": "2 34307  74.0532 303.1674 0391864 132.7637 289.6020 13.54329478829466"}}, "geometry": {"type": "Point", "coordinates": [-46.66079648990722, 33.703143888929404]}}, {"type": "Feature", "properties": {"norad_id": 34313, "name": "COSMOS 2251 DEB", "group": "cosmos-2251-debris", "lat": -37.45012646681147, "lon": 124.09604317149108, "alt_km": 518.26459514202, "timestamp": "2025-12-19T10:50:01.595620+00:00", "meta": {"OBJECT_NAME": "COSMOS 2251 DEB", "OBJECT_ID": "1993-036NK", "EPOCH": "2025-12-18T22:49:02.759232", "MEAN_MOTION": 15.20127425, "ECCENTRICITY": 0.00117397, "INCLINATION": 73.9716, "RA_OF_ASC_NODE": 292.4289, "ARG_OF_PERICENTER": 71.0923, "MEAN_ANOMALY": 289.1546, "EPHEMERIS_TYPE": 0, "CLASSIFICATION_TYPE": "U", "NORAD_CAT_ID": 34313, "ELEMENT_SET_NO": 999, "REV_AT_EPOCH": 89159, "BSTAR": 0.0031875414, "MEAN_MOTION_DOT": 0.00069685, "MEAN_MOTION_DDOT": 0}, "tle": {"line1": "1 34313U 93036NK  25352.95072638  .00069685  00000+0  31875-2 0  9991", "line2": "2 34313  73.9716 292.4289 0011739  71.0923 289.1546 15.20127425891594"}}, "geometry": {"type": "Point", "coordinates": [124.09604317149108, -37.45012646681147]}}, {"type": "Feature", "properties": {"norad_id": 34314, "name": "COSMOS 2251 DEB", "group": "cosmos-2251-debris", "lat": -63.76039384966557, "lon": -99.17681021550705, "alt_km": 864.8752755067699, "timestamp": "2025-12-19T10:50:01.595630+00:00", "meta": {"OBJECT_NAME": "COSMOS 2251 DEB", "OBJECT_ID": "1993-036NL", "EPOCH": "2025-12-18T21:51:57.453696", "MEAN_MOTION": 14.1743781, "ECCENTRICITY": 0.0103128, "INCLINATION": 74.0057, "RA_OF_ASC_NODE": 297.3699, "ARG_OF_PERICENTER": 41.5868, "MEAN_ANOMALY": 14.5745, "EPHEMERIS_TYPE": 0, "CLASSIFICATION_TYPE": "U", "NORAD_CAT_ID": 34314, "ELEMENT_SET_NO": 999, "REV_AT_EPOCH": 86745, "BSTAR": 0.00053368093, "MEAN_MOTION_DOT": 1.115e-05, "MEAN_MOTION_DDOT": 0}, "tle": {"line1": "1 34314U 93036NL  25352.91108164  .00001115  00000+0  53368-3 0  9998", "line2": "2 34314  74.0057 297.3699 0103128  41.5868  14.5745 14.17437810867454"}}, "geometry": {"type": "Point", "coordinates": [-99.17681021550705, -63.76039384966557]}}, {"type": "Feature", "properties": {"norad_id": 34316, "name": "COSMOS 2251 DEB", "group": "cosmos-2251-debris", "lat": 54.409754589229806, "lon": 119.91145859072206, "alt_km": 584.7797552496695, "timestamp": "2025-12-19T10:50:01.595640+00:00", "meta": {"OBJECT_NAME": "COSMOS 2251 DEB", "OBJECT_ID": "1993-036NN", "EPOCH": "2025-12-18T23:01:26.983776", "MEAN_MOTION": 14.92011768, "ECCENTRICITY": 0.00087608, "INCLINATION": 74.0646, "RA_OF_ASC_NODE": 324.4272, "ARG_OF_PERICENTER": 46.1076, "MEAN_ANOMALY": 314.0829, "EPHEMERIS_TYPE": 0, "CLASSIFICATION_TYPE": "U", "NORAD_CAT_ID": 34316, "ELEMENT_SET_NO": 999, "REV_AT_EPOCH": 89302, "BSTAR": 0.0012273883, "MEAN_MOTION_DOT": 0.00012442, "MEAN_MOTION_DDOT": 0}, "tle": {"line1": "1 34316U 93036NN  25352.95934009  .00012442  00000+0  12274-2 0  9994", "line2": "2 34316  74.0646 324.4272 0008760  46.1076 314.0829 14.92011768893023"}}, "geometry": {"type": "Point", "coordinates": [119.91145859072206, 54.409754589229806]}}, {"type": "Feature", "properties": {"norad_id": 34317, "name": "COSMOS 2251 DEB", "group": "cosmos-2251-debris", "lat": 46.47435768533285, "lon": 42.38258211050068, "alt_km": 809.275837095417, "timestamp": "2025-12-19T10:50:01.595650+00:00", "meta": {"OBJECT_NAME": "COSMOS 2251 DEB", "OBJECT_ID": "1993-036NP", "EPOCH": "2025-12-18T12:18:40.906944", "MEAN_MOTION": 13.65127851, "ECCENTRICITY": 0.03367199, "INCLINATION": 73.9244, "RA_OF_ASC_NODE": 26.2539, "ARG_OF_PERICENTER": 14.396, "MEAN_ANOMALY": 102.2458, "EPHEMERIS_TYPE": 0, "CLASSIFICATION_TYPE": "U", "NORAD_CAT_ID": 34317, "ELEMENT_SET_NO": 999, "REV_AT_EPOCH": 83698, "BSTAR": 0.00042214706, "MEAN_MOTION_DOT": 4.82e-06, "MEAN_MOTION_DDOT": 0}, "tle": {"line1": "1 34317U 93036NP  25352.51297346  .00000482  00000+0  42215-3 0  9993", "line2": "2 34317  73.9244  26.2539 0336719  14.3960 102.2458 13.65127851836983"}}, "geometry": {"type": "Point", "coordinates": [42.38258211050068, 46.47435768533285]}}, {"type": "Feature", "properties": {"norad_id": 34321, "name": "COSMOS 2251 DEB", "group": "cosmos-2251-debris", "lat": -18.433991059610808, "lon": 138.27367606749928, "alt_km": 725.8181205180363, "timestamp": "2025-12-19T10:50:01.595660+00:00", "meta": {"OBJECT_NAME": "COSMOS 2251 DEB", "OBJECT_ID": "1993-036NT", "EPOCH": "2025-12-18T18:53:41.983872", "MEAN_MOTION": 14.50080757, "ECCENTRICITY": 0.0015949, "INCLINATION": 74.0277, "RA_OF_ASC_NODE": 144.9991, "ARG_OF_PERICENTER": 274.2278, "MEAN_ANOMALY": 201.0433, "EPHEMERIS_TYPE": 0, "CLASSIFICATION_TYPE": "U", "NORAD_CAT_ID": 34321, "ELEMENT_SET_NO": 999, "REV_AT_EPOCH": 88574, "BSTAR": 0.00044155698, "MEAN_MOTION_DOT": 1.688e-05, "MEAN_MOTION_DDOT": 0}, "tle": {"line1": "1 34321U 93036NT  25352.78729148  .00001688  00000+0  44156-3 0  9992", "line2": "2 34321  74.0277 144.9991 0015949 274.2278 201.0433 14.50080757885741"}}, "geometry": {"type": "Point", "coordinates": [138.27367606749928, -18.433991059610808]}}, {"type": "Feature", "properties": {"norad_id": 34323, "name": "COSMOS 2251 DEB", "group": "cosmos-2251-debris", "lat": -45.28097597793269, "lon": -53.161162290998725, "alt_km": 641.9931875987177, "timestamp": "2025-12-19T10:50:01.595670+00:00", "meta": {"OBJECT_NAME": "COSMOS 2251 DEB", "OBJECT_ID": "1993-036NV", "EPOCH": "2025-12-18T09:38:37.006944", "MEAN_MOTION": 14.74606893, "ECCENTRICITY": 0.00582637, "INCLINATION": 73.953, "RA_OF_ASC_NODE": 112.0007, "ARG_OF_PERICENTER": 154.7396, "MEAN_ANOMALY": 262.6259, "EPHEMERIS_TYPE": 0, "CLASSIFICATION_TYPE": "U", "NORAD_CAT_ID": 34323, "ELEMENT_SET_NO": 999, "REV_AT_EPOCH": 88523, "BSTAR": 0.0020464281, "MEAN_MOTION_DOT": 0.00014016, "MEAN_MOTION_DDOT": 0}, "tle": {"line1": "1 34323U 93036NV  25352.40181721  .00014016  00000+0  20464-2 0  9996", "line2": "2 34323  73.9530 112.0007 0058263 154.7396 262.6259 14.74606893885230"}}, "geometry": {"type": "Point", "coordinates": [-53.161162290998725, -45.28097597793269]}}, {"type": "Feature", "properties": {"norad_id": 34325, "name": "COSMOS 2251 DEB", "group": "cosmos-2251-debris", "lat": -10.378075083760779, "lon": 4.019395240680759, "alt_km": 743.6670177462274, "timestamp": "2025-12-19T10:50:01.595680+00:00", "meta": {"OBJECT_NAME": "COSMOS 2251 DEB", "OBJECT_ID": "1993-036NX", "EPOCH": "2025-12-18T22:18:04.081824", "MEAN_MOTION": 14.04509128, "ECCENTRICITY": 0.01917812, "INCLINATION": 73.87, "RA_OF_ASC_NODE": 181.9013, "ARG_OF_PERICENTER": 198.0624, "MEAN_ANOMALY": 233.5562, "EPHEMERIS_TYPE": 0, "CLASSIFICATION_TYPE": "U", "NORAD_CAT_ID": 34325, "ELEMENT_SET_NO": 999, "REV_AT_EPOCH": 85602, "BSTAR": 0.0014853659, "MEAN_MOTION_DOT": 2.768e-05, "MEAN_MOTION_DDOT": 0}, "tle": {"line1": "1 34325U 93036NX  25352.92921391  .00002768  00000+0  14854-2 0  9997", "line2": "2 34325  73.8700 181.9013 0191781 198.0624 233.5562 14.04509128856025"}}, "geometry": {"type": "Point", "coordinates": [4.019395240680759, -10.378075083760779]}}]}